[{"OBJECT_NAME":"FLOCK 4BE-27","OBJECT_ID":"2024-149AX","EPOCH":"2026-03-09T18:04:53.053248","MEAN_MOTION":15.32593322,"ECCENTRICITY":0.00027324,"INCLINATION":97.3862,"RA_OF_ASC_NODE":150.6783,"ARG_OF_PERICENTER":305.898,"MEAN_ANOMALY":54.2008,"EPHEMERIS_TYPE":0,"CLASSIFICATION_TYPE":"U","NORAD_CAT_ID":60513,"ELEMENT_SET_NO":999,"REV_AT_EPOCH":8690,"BSTAR":0.00036576028,"MEAN_MOTION_DOT":0.00011439,"MEAN_MOTION_DDOT":0},{"OBJECT_NAME":"STARLINK-35352","OBJECT_ID":"2025-243A","EPOCH":"2026-03-09T18:10:59.854944","MEAN_MOTION":15.30208384,"ECCENTRICITY":7.361e-5,"INCLINATION":53.159,"RA_OF_ASC_NODE":244.972,"ARG_OF_PERICENTER":66.9614,"MEAN_ANOMALY":293.1464,"EPHEMERIS_TYPE":0,"CLASSIFICATION_TYPE":"U","NORAD_CAT_ID":66177,"ELEMENT_SET_NO":999,"REV_AT_EPOCH":2066,"BSTAR":0.00088636441,"MEAN_MOTION_DOT":0.00025991,"MEAN_MOTION_DDOT":0}]
